[{"OBJECT_NAME":"TEVEL2-6","OBJECT_ID":"2025-052F","EPOCH":"2026-03-09T15:35:24.554400","MEAN_MOTION":15.30760889,"ECCENTRICITY":0.0004769,"INCLINATION":97.4016,"RA_OF_ASC_NODE":325.0381,"ARG_OF_PERICENTER":95.6604,"MEAN_ANOMALY":264.5181,"EPHEMERIS_TYPE":0,"CLASSIFICATION_TYPE":"U","NORAD_CAT_ID":63215,"ELEMENT_SET_NO":999,"REV_AT_EPOCH":5486,"BSTAR":0.00070909,"MEAN_MOTION_DOT":0.00021046,"MEAN_MOTION_DDOT":0},{"OBJECT_NAME":"STARLINK-35774","OBJECT_ID":"2025-247U","EPOCH":"2026-03-09T15:15:31.901760","MEAN_MOTION":15.30182502,"ECCENTRICITY":0.0001097,"INCLINATION":53.1571,"RA_OF_ASC_NODE":191.8153,"ARG_OF_PERICENTER":84.7187,"MEAN_ANOMALY":275.3939,"EPHEMERIS_TYPE":0,"CLASSIFICATION_TYPE":"U","NORAD_CAT_ID":66283,"ELEMENT_SET_NO":999,"REV_AT_EPOCH":2102,"BSTAR":0.00082924,"MEAN_MOTION_DOT":0.00024267,"MEAN_MOTION_DDOT":0}]
